{"type":"FeatureCollection","features":[{"type":"Feature","geometry":{"type":"Point","coordinates":[113.85283,22.23884]},"properties":{"SITE_ID":"LN/C/027","SITE_NAME_EN":"Nga Ying Kok Campsite","SITE_NAME_TC":"牙鷹角營地","COUNTRY_PARK_EN":"LANTAU NORTH COUNTRY PARK","COUNTRY_PARK_TC":"北大嶼郊野公園","SOURCE_OF_WATER_EN":"STREAM WATER (SEASONAL SUPPLY)","SOURCE_OF_WATER_TC":"溪澗(季節性水源)","TENT_SPACE_EN":"Less than 20","TENT_SPACE_TC":"少於 20"}},{"type":"Feature","geometry":{"type":"Point","coordinates":[113.9862,22.25328]},"properties":{"SITE_ID":"LS/C/001","SITE_NAME_EN":"Nam Shan Campsite","SITE_NAME_TC":"南山營地","COUNTRY_PARK_EN":"LANTAU SOUTH COUNTRY PARK","COUNTRY_PARK_TC":"南大嶼郊野公園","SOURCE_OF_WATER_EN":"TAP","SOURCE_OF_WATER_TC":"水喉","TENT_SPACE_EN":"More than 50","TENT_SPACE_TC":"多於 50"}},{"type":"Feature","geometry":{"type":"Point","coordinates":[113.98829,22.23709]},"properties":{"SITE_ID":"LS/C/002","SITE_NAME_EN":"Shap Long Campsite","SITE_NAME_TC":"十塱營地","COUNTRY_PARK_EN":"LANTAU SOUTH COUNTRY PARK","COUNTRY_PARK_TC":"南大嶼郊野公園","SOURCE_OF_WATER_EN":"STREAM WATER (SEASONAL SUPPLY)","SOURCE_OF_WATER_TC":"溪澗(季節性水源)","TENT_SPACE_EN":"Less than 20","TENT_SPACE_TC":"少於 20"}},{"type":"Feature","geometry":{"type":"Point","coordinates":[113.99408,22.25183]},"properties":{"SITE_ID":"LS/C/004","SITE_NAME_EN":"Pak Fu Tin Campsite","SITE_NAME_TC":"白富田營地","COUNTRY_PARK_EN":"LANTAU SOUTH COUNTRY PARK","COUNTRY_PARK_TC":"南大嶼郊野公園","SOURCE_OF_WATER_EN":"STREAM WATER (SEASONAL SUPPLY)","SOURCE_OF_WATER_TC":"溪澗(季節性水源)","TENT_SPACE_EN":"Less than 20","TENT_SPACE_TC":"少於 20"}},{"type":"Feature","geometry":{"type":"Point","coordinates":[113.91425,22.25491]},"properties":{"SITE_ID":"LS/C/005","SITE_NAME_EN":"Ngong Ping Campsite (Lantau)","SITE_NAME_TC":"昂坪營地 (大嶼山)","COUNTRY_PARK_EN":"LANTAU SOUTH COUNTRY PARK","COUNTRY_PARK_TC":"南大嶼郊野公園","SOURCE_OF_WATER_EN":"STREAM WATER (SEASONAL SUPPLY)","SOURCE_OF_WATER_TC":"溪澗(季節性水源)","TENT_SPACE_EN":"Less than 20","TENT_SPACE_TC":"少於 20"}},{"type":"Feature","geometry":{"type":"Point","coordinates":[113.87802,22.21326]},"properties":{"SITE_ID":"LS/C/021","SITE_NAME_EN":"Tai Long Wan Campsite","SITE_NAME_TC":"大浪灣營地","COUNTRY_PARK_EN":"LANTAU SOUTH COUNTRY PARK","COUNTRY_PARK_TC":"南大嶼郊野公園","SOURCE_OF_WATER_EN":"STREAM WATER (SEASONAL SUPPLY)","SOURCE_OF_WATER_TC":"溪澗(季節性水源)","TENT_SPACE_EN":"Less than 20","TENT_SPACE_TC":"少於 20"}},{"type":"Feature","geometry":{"type":"Point","coordinates":[113.86373,22.20449]},"properties":{"SITE_ID":"LS/C/022","SITE_NAME_EN":"Kau Ling Chung Campsite","SITE_NAME_TC":"狗嶺涌營地","COUNTRY_PARK_EN":"LANTAU SOUTH COUNTRY PARK","COUNTRY_PARK_TC":"南大嶼郊野公園","SOURCE_OF_WATER_EN":"STREAM WATER (SEASONAL SUPPLY)","SOURCE_OF_WATER_TC":"溪澗(季節性水源)","TENT_SPACE_EN":"Less than 20","TENT_SPACE_TC":"少於 20"}},{"type":"Feature","geometry":{"type":"Point","coordinates":[113.86651,22.23065]},"properties":{"SITE_ID":"LS/C/023","SITE_NAME_EN":"Man Cheung Po Campsite","SITE_NAME_TC":"萬丈布營地","COUNTRY_PARK_EN":"LANTAU SOUTH COUNTRY PARK","COUNTRY_PARK_TC":"南大嶼郊野公園","SOURCE_OF_WATER_EN":"STREAM WATER (SEASONAL SUPPLY)","SOURCE_OF_WATER_TC":"溪澗(季節性水源)","TENT_SPACE_EN":"Less than 20","TENT_SPACE_TC":"少於 20"}},{"type":"Feature","geometry":{"type":"Point","coordinates":[113.84368,22.20865]},"properties":{"SITE_ID":"LS/C/024","SITE_NAME_EN":"Tsin Yue Wan Campsite","SITE_NAME_TC":"煎魚灣營地","COUNTRY_PARK_EN":"LANTAU SOUTH COUNTRY PARK","COUNTRY_PARK_TC":"南大嶼郊野公園","SOURCE_OF_WATER_EN":"STREAM WATER (SEASONAL SUPPLY)","SOURCE_OF_WATER_TC":"溪澗(季節性水源)","TENT_SPACE_EN":"Less than 20","TENT_SPACE_TC":"少於 20"}},{"type":"Feature","geometry":{"type":"Point","coordinates":[113.91518,22.21206]},"properties":{"SITE_ID":"LS/C/025","SITE_NAME_EN":"Lo Kei Wan Campsite","SITE_NAME_TC":"籮箕灣營地","COUNTRY_PARK_EN":"LANTAU SOUTH COUNTRY PARK","COUNTRY_PARK_TC":"南大嶼郊野公園","SOURCE_OF_WATER_EN":"STREAM WATER (SEASONAL SUPPLY)","SOURCE_OF_WATER_TC":"溪澗(季節性水源)","TENT_SPACE_EN":"Less than 20","TENT_SPACE_TC":"少於 20"}},{"type":"Feature","geometry":{"type":"Point","coordinates":[113.90331,22.21313]},"properties":{"SITE_ID":"LS/C/026","SITE_NAME_EN":"Shek Lam Chau Campsite","SITE_NAME_TC":"石欖洲營地","COUNTRY_PARK_EN":"LANTAU SOUTH COUNTRY PARK","COUNTRY_PARK_TC":"南大嶼郊野公園","SOURCE_OF_WATER_EN":"STREAM WATER (SEASONAL SUPPLY)","SOURCE_OF_WATER_TC":"溪澗(季節性水源)","TENT_SPACE_EN":"Less than 20","TENT_SPACE_TC":"少於 20"}},{"type":"Feature","geometry":{"type":"Point","coordinates":[113.88983,22.22891]},"properties":{"SITE_ID":"LS/C/028","SITE_NAME_EN":"Shek Pik Campsite","SITE_NAME_TC":"石壁營地","COUNTRY_PARK_EN":"LANTAU SOUTH COUNTRY PARK","COUNTRY_PARK_TC":"南大嶼郊野公園","SOURCE_OF_WATER_EN":"FLUSHING TOILET","SOURCE_OF_WATER_TC":"洗手間","TENT_SPACE_EN":"Less than 20","TENT_SPACE_TC":"少於 20"}},{"type":"Feature","geometry":{"type":"Point","coordinates":[114.27518,22.40274]},"properties":{"SITE_ID":"MOS/C/001","SITE_NAME_EN":"Shui Long Wo Campsite","SITE_NAME_TC":"水浪窩營地","COUNTRY_PARK_EN":"MA ON SHAN COUNTRY PARK","COUNTRY_PARK_TC":"馬鞍山郊野公園","SOURCE_OF_WATER_EN":"STREAM WATER (SEASONAL SUPPLY)","SOURCE_OF_WATER_TC":"溪澗(季節性水源)","TENT_SPACE_EN":"Less than 20","TENT_SPACE_TC":"少於 20"}},{"type":"Feature","geometry":{"type":"Point","coordinates":[114.25102,22.39237]},"properties":{"SITE_ID":"MOS/C/101","SITE_NAME_EN":"Ngong Ping Campsite (Ma On Shan)","SITE_NAME_TC":"昂平營地(馬鞍山)","COUNTRY_PARK_EN":"MA ON SHAN COUNTRY PARK","COUNTRY_PARK_TC":"馬鞍山郊野公園","SOURCE_OF_WATER_EN":"FLUSHING TOILET","SOURCE_OF_WATER_TC":"洗手間","TENT_SPACE_EN":"20-50","TENT_SPACE_TC":"20-50"}},{"type":"Feature","geometry":{"type":"Point","coordinates":[114.27163,22.50845]},"properties":{"SITE_ID":"PC/C/001","SITE_NAME_EN":"Sam A Chung Campsite","SITE_NAME_TC":"三椏涌營地","COUNTRY_PARK_EN":"PLOVER COVE COUNTRY PARK","COUNTRY_PARK_TC":"船灣郊野公園","SOURCE_OF_WATER_EN":"STREAM WATER (SEASONAL SUPPLY)","SOURCE_OF_WATER_TC":"溪澗(季節性水源)","TENT_SPACE_EN":"Less than 20","TENT_SPACE_TC":"少於 20"}},{"type":"Feature","geometry":{"type":"Point","coordinates":[114.44103,22.54106]},"properties":{"SITE_ID":"PCE/C/001","SITE_NAME_EN":"Tung Ping Chau Campsite","SITE_NAME_TC":"東平洲營地","COUNTRY_PARK_EN":"PLOVER COVE (EXTENSION) COUNTRY PARK","COUNTRY_PARK_TC":"船灣郊野公園(擴建部分)","SOURCE_OF_WATER_EN":"STREAM WATER (SEASONAL SUPPLY)","SOURCE_OF_WATER_TC":"溪澗(季節性水源)","TENT_SPACE_EN":"Less than 20","TENT_SPACE_TC":"少於 20"}},{"type":"Feature","geometry":{"type":"Point","coordinates":[114.24298,22.48748]},"properties":{"SITE_ID":"PSL/C/001","SITE_NAME_EN":"Chung Pui Campsite","SITE_NAME_TC":"涌背營地","COUNTRY_PARK_EN":"PAT SIN LENG COUNTRY PARK","COUNTRY_PARK_TC":"八仙嶺郊野公園","SOURCE_OF_WATER_EN":"TAP","SOURCE_OF_WATER_TC":"水喉","TENT_SPACE_EN":"20-50","TENT_SPACE_TC":"20-50"}},{"type":"Feature","geometry":{"type":"Point","coordinates":[114.23183,22.51448]},"properties":{"SITE_ID":"PSL/C/002","SITE_NAME_EN":"Kong Ha Au Campsite","SITE_NAME_TC":"降下坳營地","COUNTRY_PARK_EN":"PAT SIN LENG COUNTRY PARK","COUNTRY_PARK_TC":"八仙嶺郊野公園","SOURCE_OF_WATER_EN":"FLUSHING TOILET","SOURCE_OF_WATER_TC":"洗手間","TENT_SPACE_EN":"Less than 20","TENT_SPACE_TC":"少於 20"}},{"type":"Feature","geometry":{"type":"Point","coordinates":[114.17778,22.49841]},"properties":{"SITE_ID":"PSL/C/301","SITE_NAME_EN":"Hok Tau Campsite","SITE_NAME_TC":"鶴藪營地","COUNTRY_PARK_EN":"PAT SIN LENG COUNTRY PARK","COUNTRY_PARK_TC":"八仙嶺郊野公園","SOURCE_OF_WATER_EN":"TAP","SOURCE_OF_WATER_TC":"水喉","TENT_SPACE_EN":"20-50","TENT_SPACE_TC":"20-50"}},{"type":"Feature","geometry":{"type":"Point","coordinates":[114.16708,22.49139]},"properties":{"SITE_ID":"PSL/C/302","SITE_NAME_EN":"Lau Shui Heung Campsite","SITE_NAME_TC":"流水響營地","COUNTRY_PARK_EN":"PAT SIN LENG COUNTRY PARK","COUNTRY_PARK_TC":"八仙嶺郊野公園","SOURCE_OF_WATER_EN":"STREAM WATER (SEASONAL SUPPLY)","SOURCE_OF_WATER_TC":"溪澗(季節性水源)","TENT_SPACE_EN":"Less than 20","TENT_SPACE_TC":"少於 20"}},{"type":"Feature","geometry":{"type":"Point","coordinates":[114.32692,22.3822]},"properties":{"SITE_ID":"SKE/C/101","SITE_NAME_EN":"Po Kwu Wan Campsite","SITE_NAME_TC":"曝罟灣營地","COUNTRY_PARK_EN":"SAI KUNG EAST COUNTRY PARK","COUNTRY_PARK_TC":"西貢東郊野公園","SOURCE_OF_WATER_EN":"STREAM WATER (SEASONAL SUPPLY)","SOURCE_OF_WATER_TC":"溪澗(季節性水源)","TENT_SPACE_EN":"Less than 20","TENT_SPACE_TC":"少於 20"}},{"type":"Feature","geometry":{"type":"Point","coordinates":[114.33253,22.37707]},"properties":{"SITE_ID":"SKE/C/102","SITE_NAME_EN":"Yuen Ng Fan (Nam Fung Wan) Campsite","SITE_NAME_TC":"元五墳(南風灣)營地","COUNTRY_PARK_EN":"SAI KUNG EAST COUNTRY PARK","COUNTRY_PARK_TC":"西貢東郊野公園","SOURCE_OF_WATER_EN":"STREAM WATER (SEASONAL SUPPLY)","SOURCE_OF_WATER_TC":"溪澗(季節性水源)","TENT_SPACE_EN":"Less than 20","TENT_SPACE_TC":"少於 20"}},{"type":"Feature","geometry":{"type":"Point","coordinates":[114.36479,22.35874]},"properties":{"SITE_ID":"SKE/C/103","SITE_NAME_EN":"Pak Lap Campsite","SITE_NAME_TC":"白腊營地","COUNTRY_PARK_EN":"SAI KUNG EAST COUNTRY PARK","COUNTRY_PARK_TC":"西貢東郊野公園","SOURCE_OF_WATER_EN":"STREAM WATER (SEASONAL SUPPLY)","SOURCE_OF_WATER_TC":"溪澗(季節性水源)","TENT_SPACE_EN":"Less than 20","TENT_SPACE_TC":"少於 20"}},{"type":"Feature","geometry":{"type":"Point","coordinates":[114.3698,22.39938]},"properties":{"SITE_ID":"SKE/C/203","SITE_NAME_EN":"Sai Wan Campsite","SITE_NAME_TC":"西灣營地","COUNTRY_PARK_EN":"SAI KUNG EAST COUNTRY PARK","COUNTRY_PARK_TC":"西貢東郊野公園","SOURCE_OF_WATER_EN":"TAP","SOURCE_OF_WATER_TC":"水喉","TENT_SPACE_EN":"More than 50","TENT_SPACE_TC":"多於  50"}},{"type":"Feature","geometry":{"type":"Point","coordinates":[114.37492,22.37363]},"properties":{"SITE_ID":"SKE/C/205","SITE_NAME_EN":"Long Ke Wan Campsite","SITE_NAME_TC":"浪茄灣營地","COUNTRY_PARK_EN":"SAI KUNG EAST COUNTRY PARK","COUNTRY_PARK_TC":"西貢東郊野公園","SOURCE_OF_WATER_EN":"STREAM WATER (SEASONAL SUPPLY)","SOURCE_OF_WATER_TC":"溪澗(季節性水源)","TENT_SPACE_EN":"Less than 20","TENT_SPACE_TC":"少於 20"}},{"type":"Feature","geometry":{"type":"Point","coordinates":[114.33599,22.4231]},"properties":{"SITE_ID":"SKE/C/301","SITE_NAME_EN":"Pak Tam Au Campsite","SITE_NAME_TC":"北潭凹營地","COUNTRY_PARK_EN":"SAI KUNG EAST COUNTRY PARK","COUNTRY_PARK_TC":"西貢東郊野公園","SOURCE_OF_WATER_EN":"STREAM WATER (SEASONAL SUPPLY)","SOURCE_OF_WATER_TC":"溪澗(季節性水源)","TENT_SPACE_EN":"Less than 20","TENT_SPACE_TC":"少於 20"}},{"type":"Feature","geometry":{"type":"Point","coordinates":[114.33642,22.43497]},"properties":{"SITE_ID":"SKE/C/304","SITE_NAME_EN":"Wong Shek Campsite","SITE_NAME_TC":"黃石營地","COUNTRY_PARK_EN":"SAI KUNG EAST COUNTRY PARK","COUNTRY_PARK_TC":"西貢東郊野公園","SOURCE_OF_WATER_EN":"TAP","SOURCE_OF_WATER_TC":"水喉","TENT_SPACE_EN":"Less than 20","TENT_SPACE_TC":"少於 20"}},{"type":"Feature","geometry":{"type":"Point","coordinates":[114.37515,22.40934]},"properties":{"SITE_ID":"SKE/C/305","SITE_NAME_EN":"Ham Tin Wan Campsite","SITE_NAME_TC":"鹹田灣營地","COUNTRY_PARK_EN":"SAI KUNG EAST COUNTRY PARK","COUNTRY_PARK_TC":"西貢東郊野公園","SOURCE_OF_WATER_EN":"TAP","SOURCE_OF_WATER_TC":"水喉","TENT_SPACE_EN":"More than 50","TENT_SPACE_TC":"多於 50"}},{"type":"Feature","geometry":{"type":"Point","coordinates":[114.3081,22.38561]},"properties":{"SITE_ID":"SKW/C/101","SITE_NAME_EN":"Tai Mong Tsai Campsite 1","SITE_NAME_TC":"大網仔營地","COUNTRY_PARK_EN":"SAI KUNG WEST COUNTRY PARK","COUNTRY_PARK_TC":"西貢西郊野公園","SOURCE_OF_WATER_EN":"TAP","SOURCE_OF_WATER_TC":"水喉","TENT_SPACE_EN":"Less than 20","TENT_SPACE_TC":"少於 20"}},{"type":"Feature","geometry":{"type":"Point","coordinates":[114.30981,22.42851]},"properties":{"SITE_ID":"SKW/C/301","SITE_NAME_EN":"Cheung Sheung Campsite","SITE_NAME_TC":"嶂上營地","COUNTRY_PARK_EN":"SAI KUNG WEST COUNTRY PARK","COUNTRY_PARK_TC":"西貢西郊野公園","SOURCE_OF_WATER_EN":"STREAM WATER (SEASONAL SUPPLY)","SOURCE_OF_WATER_TC":"溪澗(季節性水源)","TENT_SPACE_EN":"Less than 20","TENT_SPACE_TC":"少於 20"}},{"type":"Feature","geometry":{"type":"Point","coordinates":[114.32724,22.44156]},"properties":{"SITE_ID":"SKW/C/307","SITE_NAME_EN":"Hau Tong Kai Campsite","SITE_NAME_TC":"猴塘溪營地","COUNTRY_PARK_EN":"SAI KUNG WEST COUNTRY PARK","COUNTRY_PARK_TC":"西貢西郊野公園","SOURCE_OF_WATER_EN":"TAP","SOURCE_OF_WATER_TC":"水喉","TENT_SPACE_EN":"Less than 20","TENT_SPACE_TC":"少於 20"}},{"type":"Feature","geometry":{"type":"Point","coordinates":[114.3381,22.46508]},"properties":{"SITE_ID":"SKW/C/308","SITE_NAME_EN":"Wan Tsai West Campsite","SITE_NAME_TC":"灣仔西營地","COUNTRY_PARK_EN":"SAI KUNG WEST COUNTRY PARK (WAN TSAI EXTENSION)","COUNTRY_PARK_TC":"西貢西郊野公園(灣仔擴建部分)","SOURCE_OF_WATER_EN":"TAP","SOURCE_OF_WATER_TC":"水喉","TENT_SPACE_EN":"More than 50","TENT_SPACE_TC":"多於 50"}},{"type":"Feature","geometry":{"type":"Point","coordinates":[114.34213,22.46161]},"properties":{"SITE_ID":"SKW/C/309","SITE_NAME_EN":"Wan Tsai South Campsite","SITE_NAME_TC":"灣仔南營地","COUNTRY_PARK_EN":"SAI KUNG WEST COUNTRY PARK (WAN TSAI EXTENSION)","COUNTRY_PARK_TC":"西貢西郊野公園(灣仔擴建部分)","SOURCE_OF_WATER_EN":"TAP","SOURCE_OF_WATER_TC":"水喉","TENT_SPACE_EN":"More than 50","TENT_SPACE_TC":"多於  50"}},{"type":"Feature","geometry":{"type":"Point","coordinates":[114.33341,22.43753]},"properties":{"SITE_ID":"SKW/C/310","SITE_NAME_EN":"Tai Tan Campsite","SITE_NAME_TC":"大灘營地","COUNTRY_PARK_EN":"SAI KUNG WEST COUNTRY PARK","COUNTRY_PARK_TC":"西貢西郊野公園","SOURCE_OF_WATER_EN":"TAP","SOURCE_OF_WATER_TC":"水喉","TENT_SPACE_EN":"Less than 20","TENT_SPACE_TC":"少於 20"}},{"type":"Feature","geometry":{"type":"Point","coordinates":[114.32522,22.40626]},"properties":{"SITE_ID":"SKW/C/311","SITE_NAME_EN":"Yee Ting Campsite","SITE_NAME_TC":"怡庭營地","COUNTRY_PARK_EN":"SAI KUNG WEST COUNTRY PARK","COUNTRY_PARK_TC":"西貢西郊野公園","SOURCE_OF_WATER_EN":"STREAM WATER (SEASONAL SUPPLY)","SOURCE_OF_WATER_TC":"溪澗(季節性水源)","TENT_SPACE_EN":"Less than 20","TENT_SPACE_TC":"少於 20"}},{"type":"Feature","geometry":{"type":"Point","coordinates":[114.15779,22.41132]},"properties":{"SITE_ID":"SM/C/001","SITE_NAME_EN":"Lead Mine Pass Campsite","SITE_NAME_TC":"鉛礦坳營地","COUNTRY_PARK_EN":"SHING MUN COUNTRY PARK","COUNTRY_PARK_TC":"城門郊野公園","SOURCE_OF_WATER_EN":"TAP","SOURCE_OF_WATER_TC":"水喉","TENT_SPACE_EN":"Less than 20","TENT_SPACE_TC":"少於 20"}},{"type":"Feature","geometry":{"type":"Point","coordinates":[114.06604,22.39008]},"properties":{"SITE_ID":"TL/C/301","SITE_NAME_EN":"Tin Fu Tsai Campsite","SITE_NAME_TC":"田夫仔營地","COUNTRY_PARK_EN":"TAI LAM COUNTRY PARK","COUNTRY_PARK_TC":"大欖郊野公園","SOURCE_OF_WATER_EN":"STREAM WATER (SEASONAL SUPPLY)","SOURCE_OF_WATER_TC":"溪澗(季節性水源)","TENT_SPACE_EN":"20-50","TENT_SPACE_TC":"20-50"}},{"type":"Feature","geometry":{"type":"Point","coordinates":[114.0717,22.40996]},"properties":{"SITE_ID":"TL/C/302","SITE_NAME_EN":"Ho Pui Campsite","SITE_NAME_TC":"河背營地","COUNTRY_PARK_EN":"TAI LAM COUNTRY PARK","COUNTRY_PARK_TC":"大欖郊野公園","SOURCE_OF_WATER_EN":"STREAM WATER (SEASONAL SUPPLY)","SOURCE_OF_WATER_TC":"溪澗(季節性水源)","TENT_SPACE_EN":"Less than 20","TENT_SPACE_TC":"少於 20"}},{"type":"Feature","geometry":{"type":"Point","coordinates":[114.10323,22.4068]},"properties":{"SITE_ID":"TL/C/401","SITE_NAME_EN":"Twisk Campsite","SITE_NAME_TC":"荃錦營地","COUNTRY_PARK_EN":"TAI LAM COUNTRY PARK","COUNTRY_PARK_TC":"大欖郊野公園","SOURCE_OF_WATER_EN":"TAP","SOURCE_OF_WATER_TC":"水喉","TENT_SPACE_EN":"20-50","TENT_SPACE_TC":"20-50"}},{"type":"Feature","geometry":{"type":"Point","coordinates":[114.29593,22.25549]},"properties":{"SITE_ID":"TLF/C/101","SITE_NAME_EN":"Tung Lung Chau Campsite","SITE_NAME_TC":"東龍洲營地","COUNTRY_PARK_EN":"TUNG LUNG FORT (SPECIAL AREA)","COUNTRY_PARK_TC":"東龍洲炮台特別地區","SOURCE_OF_WATER_EN":"TAP","SOURCE_OF_WATER_TC":"水喉","TENT_SPACE_EN":"Less than 20","TENT_SPACE_TC":"少於 20"}},{"type":"Feature","geometry":{"type":"Point","coordinates":[114.1051,22.40507]},"properties":{"SITE_ID":"TMS/C/001","SITE_NAME_EN":"Rotary Park Campsite","SITE_NAME_TC":"扶輪公園營地","COUNTRY_PARK_EN":"TAI MO SHAN COUNTRY PARK","COUNTRY_PARK_TC":"大帽山郊野公園","SOURCE_OF_WATER_EN":"TAP","SOURCE_OF_WATER_TC":"水喉","TENT_SPACE_EN":"Less than 20","TENT_SPACE_TC":"少於 20"}}]}