{"type":"FeatureCollection","snapshot_downloaded_at":"2026-09-28T11:59:55+00:00","features":[{"type":"Feature","geometry":{"type":"LineString","coordinates":[[113.84467,22.22081],[113.84448,22.22044],[113.84385,22.21969],[113.84379,22.2191],[113.84347,22.21858],[113.84353,22.2181],[113.84391,22.2176],[113.84378,22.21729],[113.84357,22.21706],[113.84363,22.21657],[113.8441,22.21579],[113.84418,22.21553],[113.84401,22.21469],[113.84371,22.21403],[113.84366,22.21371],[113.84372,22.21322],[113.84399,22.21292],[113.84414,22.21285],[113.84436,22.21235],[113.84457,22.21226],[113.84501,22.21173],[113.84531,22.21104],[113.84545,22.21088],[113.84524,22.21025],[113.84571,22.20878],[113.84589,22.20843],[113.84708,22.20716],[113.84725,22.20675],[113.8475,22.20656],[113.84779,22.20602],[113.848,22.20578],[113.84821,22.20524],[113.84864,22.20492],[113.84916,22.20432],[113.84923,22.20394],[113.84942,22.20364],[113.84944,22.20326]]},"properties":{"TRAIL_ID":"lt_7","TRAIL_NAME_EN":"Lantau Trail Section 7 (partial)","TRAIL_NAME_TC":"鳳凰徑第七段 (部分)","LOCATION_EN":"Lantau South Country Park","LOCATION_TC":"南大嶼郊野公園","STATUS_TC":"暫時封閉","EFFECTIVE_DATE":"15/10/2023","EXPECTED_EXPIRY_DATE":"Until further notice","STATUS_EN_AFCD":"Temporary closed","status_en":"Temporary closed","effective_date":"2023-10-15"}},{"type":"Feature","geometry":{"type":"LineString","coordinates":[[114.19305,22.50144],[114.19274,22.50142],[114.19203,22.50223],[114.19161,22.50291],[114.1913,22.50321],[114.1911,22.50369],[114.19095,22.50386],[114.19096,22.50403],[114.19064,22.50459],[114.19018,22.50477],[114.18992,22.50496],[114.18991,22.50512],[114.18956,22.5053],[114.18959,22.50569],[114.18977,22.50591],[114.18914,22.50627],[114.18919,22.50665],[114.18889,22.50696],[114.18868,22.50776],[114.18832,22.5083],[114.1881,22.50843],[114.18772,22.50889],[114.1876,22.50917],[114.18733,22.50942],[114.18694,22.5096],[114.18657,22.50965],[114.18636,22.50975],[114.1859,22.5103],[114.18542,22.51059],[114.18488,22.51061],[114.18457,22.51044],[114.18413,22.51034],[114.18382,22.51037],[114.18314,22.51016],[114.18293,22.51017]]},"properties":{"TRAIL_ID":"cty_2","TRAIL_NAME_EN":"Nam Chung Country Trail","TRAIL_NAME_TC":"南涌郊遊徑","LOCATION_EN":"Pat Sin Leng Country Park","LOCATION_TC":"八仙嶺郊野公園","STATUS_TC":"暫時封閉","EFFECTIVE_DATE":"11/9/2023","EXPECTED_EXPIRY_DATE":"Until further notice","STATUS_EN_AFCD":"Temporary closed","status_en":"Temporary closed","effective_date":"2023-09-11"}},{"type":"Feature","geometry":{"type":"LineString","coordinates":[[113.85,22.2306],[113.84945,22.23069],[113.84937,22.23025],[113.84958,22.22969],[113.84932,22.22951],[113.8488,22.22886],[113.84855,22.22799],[113.84783,22.2266],[113.84783,22.22614],[113.84791,22.22599],[113.84816,22.22593],[113.84842,22.2257],[113.8483,22.22473],[113.84806,22.22455],[113.84764,22.22445],[113.84745,22.22427],[113.84709,22.22359],[113.84718,22.22345],[113.84716,22.22314],[113.84696,22.22296]]},"properties":{"TRAIL_ID":"lt_7","TRAIL_NAME_EN":"Lantau Trail Section 7 (partial)","TRAIL_NAME_TC":"鳳凰徑第七段 (部分)","LOCATION_EN":"Lantau South Country Park","LOCATION_TC":"南大嶼郊野公園","STATUS_TC":"暫時改道","EFFECTIVE_DATE":"15/3/2013","EXPECTED_EXPIRY_DATE":"Until further notice","STATUS_EN_AFCD":"Temporary diversion","status_en":"Temporary diversion","effective_date":"2013-03-15"}},{"type":"Feature","geometry":{"type":"LineString","coordinates":[[113.85639,22.20383],[113.8562,22.2036],[113.85603,22.20359],[113.85596,22.20339],[113.85588,22.2034],[113.85581,22.2033],[113.85578,22.20342],[113.85546,22.20344],[113.85536,22.20331],[113.85515,22.20333],[113.85487,22.20317],[113.85494,22.20299],[113.85357,22.20181],[113.85284,22.20079],[113.85252,22.19974],[113.85263,22.19886],[113.85311,22.19837],[113.8536,22.19828],[113.85378,22.19832],[113.85366,22.19814],[113.85356,22.19817],[113.85311,22.19801],[113.85296,22.1981],[113.85265,22.19807],[113.85229,22.19816],[113.85206,22.19775],[113.8518,22.19765],[113.85167,22.19768],[113.85159,22.19783],[113.85163,22.19837],[113.85151,22.19859],[113.85128,22.19875],[113.85061,22.1989],[113.85037,22.19916],[113.85,22.19907],[113.84954,22.19909],[113.84905,22.19889],[113.84864,22.19883],[113.84815,22.19857],[113.84794,22.19861],[113.84779,22.19873],[113.84752,22.1992],[113.84743,22.1997],[113.84746,22.20016],[113.84785,22.20074],[113.84815,22.20099],[113.84835,22.20139],[113.84855,22.20152],[113.849,22.20209],[113.84933,22.20199],[113.84934,22.20227],[113.84921,22.20259],[113.8493,22.20266],[113.84929,22.20318],[113.84944,22.20325]]},"properties":{"TRAIL_ID":"cty_16","TRAIL_NAME_EN":"Fan Lau Country Trail","TRAIL_NAME_TC":"分流郊遊徑","LOCATION_EN":"Lantau South Country Park","LOCATION_TC":"南大嶼郊野公園","STATUS_TC":"暫時封閉","EFFECTIVE_DATE":"15/10/2023","EXPECTED_EXPIRY_DATE":"Until further notice","STATUS_EN_AFCD":"Temporary closed","status_en":"Temporary closed","effective_date":"2023-10-15"}},{"type":"Feature","geometry":{"type":"LineString","coordinates":[[114.33253,22.43989],[114.33284,22.44016],[114.33297,22.44047],[114.33316,22.44045],[114.3334,22.44065],[114.33362,22.44056],[114.33389,22.441],[114.33429,22.4412],[114.33443,22.44144],[114.33457,22.44151],[114.33499,22.44122],[114.335,22.44097],[114.33513,22.44091],[114.33534,22.44094],[114.33555,22.44118],[114.33597,22.44109],[114.33664,22.44111],[114.33684,22.44119],[114.33708,22.44105],[114.33723,22.44068],[114.33743,22.44047],[114.33795,22.44055],[114.33806,22.44034],[114.33815,22.44042],[114.33837,22.44042],[114.33887,22.4406],[114.33897,22.44071],[114.33903,22.44114],[114.33948,22.44199],[114.33968,22.44202],[114.3402,22.4419],[114.34033,22.44199],[114.3405,22.44239],[114.3405,22.44261],[114.34082,22.44328],[114.34094,22.44384],[114.34111,22.444],[114.34108,22.44437],[114.34117,22.44448],[114.34103,22.4447],[114.34123,22.44492],[114.34127,22.44542],[114.34102,22.44643],[114.34084,22.44668],[114.34058,22.44678],[114.34037,22.44699],[114.3399,22.44707],[114.33945,22.44724],[114.33909,22.44766],[114.33823,22.44793],[114.33796,22.44811],[114.33773,22.44845],[114.33798,22.44902],[114.33789,22.44917],[114.33817,22.4497],[114.33814,22.44987],[114.33825,22.45028],[114.3381,22.451],[114.33751,22.4516],[114.33676,22.45184],[114.3365,22.45145],[114.33625,22.45139],[114.33567,22.45105],[114.33562,22.45144],[114.33575,22.45185],[114.33559,22.45201],[114.33551,22.45257],[114.33535,22.45283],[114.33523,22.45295],[114.33478,22.45305],[114.33452,22.45338],[114.33379,22.4534],[114.33336,22.45435],[114.33336,22.45444],[114.33368,22.4545],[114.33383,22.45461],[114.33417,22.45505],[114.33438,22.45512],[114.33455,22.45504],[114.33486,22.45507],[114.33498,22.45523],[114.33534,22.4554],[114.33567,22.45613],[114.33571,22.45641],[114.33625,22.45673],[114.33661,22.45674],[114.33654,22.45753],[114.33661,22.45778],[114.33673,22.45788],[114.33673,22.45821],[114.33714,22.45842],[114.33719,22.45829],[114.3374,22.45853],[114.3378,22.45881],[114.33791,22.45895],[114.33798,22.45926],[114.33823,22.45951],[114.3383,22.45997],[114.33819,22.46064],[114.33794,22.46119],[114.33788,22.46168],[114.33765,22.4624],[114.33741,22.46274]]},"properties":{"TRAIL_ID":"cty_7","TRAIL_NAME_EN":"Tai Tan Country Trail (partial)","TRAIL_NAME_TC":"大灘郊遊徑 (部分)","LOCATION_EN":"Sai Kung West Country Park","LOCATION_TC":"西貢西郊野公園","STATUS_TC":"暫時封閉","EFFECTIVE_DATE":"15/9/2025","EXPECTED_EXPIRY_DATE":"Until further notice","STATUS_EN_AFCD":"Temporary closed","status_en":"Temporary closed","effective_date":"2025-09-15"}},{"type":"Feature","geometry":{"type":"LineString","coordinates":[[114.23613,22.47715],[114.23614,22.47727],[114.23541,22.47771],[114.23516,22.47797],[114.23479,22.47797],[114.23475,22.478],[114.23487,22.47814],[114.23466,22.47811],[114.23464,22.47818],[114.23489,22.47837],[114.23523,22.47919],[114.23558,22.47928],[114.23587,22.47952],[114.23584,22.47986],[114.23596,22.48001],[114.23606,22.48038],[114.2366,22.4802],[114.237,22.48047],[114.23719,22.48152],[114.2375,22.48193],[114.23791,22.48201],[114.23808,22.48238],[114.23812,22.48283],[114.2382,22.48296]]},"properties":{"TRAIL_ID":"nat_4","TRAIL_NAME_EN":"Pat Sin Leng Nature Trail (partial)","TRAIL_NAME_TC":"八仙嶺自然教育徑 (部分)","LOCATION_EN":"Plover Cove Country Park","LOCATION_TC":"船灣郊野公園","STATUS_TC":"暫時封閉","EFFECTIVE_DATE":"3/10/2025","EXPECTED_EXPIRY_DATE":"Until further notice","STATUS_EN_AFCD":"Temporary closed","status_en":"Temporary closed","effective_date":"2025-10-03"}},{"type":"Feature","geometry":{"type":"MultiLineString","coordinates":[[[114.00659,22.25864],[114.00677,22.25855],[114.00698,22.2582],[114.00695,22.25801],[114.00669,22.25769],[114.00709,22.25736],[114.00775,22.25727],[114.00786,22.25719],[114.00792,22.25696],[114.00778,22.2564],[114.00794,22.25602],[114.00866,22.25557],[114.00886,22.25532],[114.00876,22.25513],[114.00878,22.25488],[114.00896,22.25466],[114.00931,22.25395],[114.00943,22.25353],[114.00923,22.253],[114.00909,22.25221],[114.00901,22.25209],[114.00875,22.25205],[114.00862,22.25194],[114.0086,22.25167],[114.00813,22.25126],[114.00772,22.25101],[114.00629,22.2505],[114.00603,22.25031],[114.00582,22.25003],[114.00504,22.24947],[114.00463,22.24954],[114.00446,22.24974],[114.00437,22.24975],[114.00398,22.2495],[114.00352,22.24934],[114.00296,22.24893],[114.00237,22.24901],[114.00197,22.24919]],[[113.99379,22.24287],[113.99408,22.24315],[113.99442,22.24331],[113.99481,22.24334],[113.99502,22.24326],[113.99519,22.24332],[113.99567,22.24395],[113.99619,22.2443],[113.99657,22.24429],[113.99711,22.24451],[113.99852,22.24566],[113.99902,22.24569],[113.99921,22.24635],[113.99917,22.24666],[113.99995,22.24694],[114.00032,22.24755],[114.00039,22.24778],[114.00036,22.24822],[114.00059,22.24855],[114.00055,22.24879],[114.00068,22.249],[114.00114,22.2494],[114.00197,22.24919]],[[114.00194,22.2492],[114.00197,22.24919]]]},"properties":{"TRAIL_ID":"mb_13","TRAIL_NAME_EN":"Mui Wo to Pui O Mountain Bike Trail (partial)","TRAIL_NAME_TC":"梅窩至貝澳越野單車徑 (部分)","LOCATION_EN":"Lantau South Country Park","LOCATION_TC":"南大嶼郊野公園","STATUS_TC":"暫停使用","EFFECTIVE_DATE":"30/6/2026","EXPECTED_EXPIRY_DATE":"Until further notice","STATUS_EN_AFCD":"Temporary closed","status_en":"Suspended from use","effective_date":"2026-06-30"}}]}