{"type":"FeatureCollection","features":[{"type":"Feature","geometry":{"type":"Point","coordinates":[114.15934,22.25394]},"properties":{"FAC_ID":"ABDVC","FACILITY_NAME_EN":"Aberdeen Tree Centre","FACILITY_NAME_TC":"香港仔樹木廊","COUNTRY_PARK_EN":"ABERDEEN COUNTRY PARK","COUNTRY_PARK_TC":"香港仔郊野公園","SERVICE_HOUR_EN":"9:30–16:30","REMARK_EN":"Saturdays, Sundays and Public Holidays: 9:30 am - 4:30 pm; Closed on the first two days of the Chinese New Year","REMARK_TC":"星期六、星期日及公眾假期：上午九時三十分至下午四時三十分開放, 農曆新年年初一及初二休館"}},{"type":"Feature","geometry":{"type":"Point","coordinates":[114.31955,22.39787]},"properties":{"FAC_ID":"SKVC","FACILITY_NAME_EN":"Sai Kung Country Park Visitor Centre","FACILITY_NAME_TC":"西貢郊野公園遊客中心","COUNTRY_PARK_EN":"SAI KUNG WEST COUNTRY PARK","COUNTRY_PARK_TC":"西貢西郊野公園","SERVICE_HOUR_EN":"9:30–16:30","REMARK_EN":"Monday, Wednesday to Sunday: 9:30 am - 4:30 pm; Closed on Tuesdays (except public holidays) and the first two days of the Chinese New Year","REMARK_TC":"星期一、星期三至星期日:上午九時三十分至下午四時三十分開放，星期二(公眾假期除外)及農曆新年年初一及初二休館"}},{"type":"Feature","geometry":{"type":"Point","coordinates":[114.30096,22.29074]},"properties":{"FAC_ID":"CWBVC","FACILITY_NAME_EN":"Clear Water Bay Country Park Visitor Centre","FACILITY_NAME_TC":"清水灣郊野公園遊客中心","COUNTRY_PARK_EN":"CLEAR WATER BAY COUNTRY PARK","COUNTRY_PARK_TC":"清水灣郊野公園","SERVICE_HOUR_EN":"9:30–16:30","REMARK_EN":"Monday, Wednesday to Sunday: 9:30 am - 4:30 pm; Closed on Tuesdays (except public holidays) and the first two days of the Chinese New Year","REMARK_TC":"星期一、星期三至星期日:上午九時三十分至下午四時三十分開放，星期二(公眾假期除外)及農曆新年年初一及初二休館"}},{"type":"Feature","geometry":{"type":"Point","coordinates":[114.10665,22.40583]},"properties":{"FAC_ID":"TMSVC","FACILITY_NAME_EN":"Tai Mo Shan Country Park Visitor Centre","FACILITY_NAME_TC":"大帽山郊野公園遊客中心","COUNTRY_PARK_EN":"TAI MO SHAN COUNTRY PARK","COUNTRY_PARK_TC":"大帽山郊野公園","SERVICE_HOUR_EN":"9:30–16:30","REMARK_EN":"Monday, Wednesday to Sunday: 9:30 am - 4:30 pm; Closed on Tuesdays (except public holidays) and the first two days of the Chinese New Year","REMARK_TC":"星期一、星期三至星期日：上午九時三十分至下午四時三十分開放，星期二(公眾假期除外)及農曆新年年初一及初二休館"}},{"type":"Feature","geometry":{"type":"Point","coordinates":[114.14377,22.38507]},"properties":{"FAC_ID":"SMVC","FACILITY_NAME_EN":"Shing Mun Country Park Visitor Centre","FACILITY_NAME_TC":"城門郊野公園遊客中心","COUNTRY_PARK_EN":"SHING MUN COUNTRY PARK","COUNTRY_PARK_TC":"城門郊野公園","SERVICE_HOUR_EN":"9:30–16:30","REMARK_EN":"Saturdays, Sundays and Public Holidays: 9:30 am - 4:30 pm; Closed on the first two days of the Chinese New Year","REMARK_TC":"星期六、星期日及公眾假期：上午九時三十分至下午四時三十分開放，農曆新年年初一、初二休館"}},{"type":"Feature","geometry":{"type":"Point","coordinates":[114.21146,22.28124]},"properties":{"FAC_ID":"WBEC","FACILITY_NAME_EN":"Woodside Biodiversity Education Centre","FACILITY_NAME_TC":"林邊生物多樣性自然教育中心","COUNTRY_PARK_EN":"Outside Country Park and Special Area","COUNTRY_PARK_TC":"不在郊野公園及特別地區範圍","SERVICE_HOUR_EN":"9:30–16:30","REMARK_EN":"Monday, Wednesday to Sunday & Public holidays: 9:30 a.m. - 4:30 p.m.; Closed on Tuesdays (except public holidays) and the first two days of the Chinese New Year","REMARK_TC":"星期一、星期三至星期日及公眾假期︰上午九時三十分至下午四時三十分開放; 逢星期二(公眾假期除外)、農曆年初一及初二休館"}},{"type":"Feature","geometry":{"type":"Point","coordinates":[113.90319,22.25588]},"properties":{"FAC_ID":"NPNC","FACILITY_NAME_EN":"Ngong Ping Nature Centre","FACILITY_NAME_TC":"昂坪自然中心","COUNTRY_PARK_EN":"Excluded Area","COUNTRY_PARK_TC":"不包括地區","SERVICE_HOUR_EN":"10:00–17:30","REMARK_EN":"Monday - Sunday & Public holidays : 10:00 am - 5:30 pm","REMARK_TC":"星期一至星期日及公眾假期：上午十時至下午五時三十分開放"}},{"type":"Feature","geometry":{"type":"Point","coordinates":[114.26401,22.37395]},"properties":{"FAC_ID":"LNEC","FACILITY_NAME_EN":"Lions Nature Education Centre","FACILITY_NAME_TC":"獅子會自然教育中心","COUNTRY_PARK_EN":"TSIU HANG (SPECIAL AREA)","COUNTRY_PARK_TC":"蕉坑特別地區","SERVICE_HOUR_EN":"9:30–16:30","REMARK_EN":"Monday, Wednesday to Sunday & Public holidays: 9:30 a.m. - 4:30 p.m.; Closed on Tuesdays (except public holidays) and the first two days of the Chinese New Year.","REMARK_TC":"星期一、星期三至星期日及公眾假期︰上午九時三十分至下午四時三十分開放; 逢星期二(公眾假期除外)及農曆年初一及初二休館"}}]}